ATLAS CENTAUR R/B       
1 06155U 72065B   26079.50405770  .00001239  00000+0  17195-3 0  9999
2 06155  35.0005 242.3754 0032868 101.2203 259.2194 14.77716471842860
SL-8 R/B                
1 08459U 75112B   26079.91077916  .00000204  00000+0  75724-4 0  9990
2 08459  74.0637 358.2721 0014453  86.8112 273.4696 14.38209918633482
SL-3 R/B                
1 10114U 77057B   26079.91892106  .00012662  00000+0  26307-3 0  9990
2 10114  97.5785 252.3377 0006335 237.2200 122.8439 15.45795207670065
SEASAT 1                
1 10967U 78064A   26079.90949523  .00000189  00000+0  91146-4 0  9995
2 10967 108.0087 149.0423 0002506 280.7305  79.3558 14.46168853508130
SL-14 R/B               
1 11267U 79011B   26079.37868845  .00000550  00000+0  51714-4 0  9999
2 11267  82.5204  86.4247 0016716  27.1182 333.0907 14.91920753530377
SL-8 R/B                
1 11574U 79089B   26079.91234413  .00000141  00000+0  50760-4 0  9999
2 11574  74.0674  70.2668 0016975 241.6819 118.2625 14.42356856437728
SL-14 R/B               
1 11672U 80005B   26079.33163779  .00000459  00000+0  43855-4 0  9999
2 11672  82.5124 297.1403 0016960 124.7812 235.5007 14.90941572478074
SL-8 R/B                
1 12139U 81003B   26079.79403098  .00021470  00000+0  54383-3 0  9991
2 12139  82.9353 279.7531 0261411 139.9332 222.1513 15.11419752316357
SL-3 R/B                
1 12465U 81046B   26079.94477885  .00010842  00000+0  24995-3 0  9999
2 12465  81.2279 276.2243 0018692 342.9336  17.1276 15.42252532440161
SL-3 R/B                
1 12904U 81103B   26079.88698395  .00005353  00000+0  23641-3 0  9993
2 12904  81.1606 200.2969 0012427 246.1352 113.8578 15.21501262974937
SL-3 R/B                
1 13068U 82013B   26079.89048269  .00003365  00000+0  14473-3 0  9990
2 13068  81.1748 147.6433 0023231 140.3454 219.9482 15.22114112406059
SL-3 R/B                
1 13154U 82039B   26079.92108083  .00002396  00000+0  14411-3 0  9994
2 13154  81.1579 203.0122 0029150 287.5846  72.2195 15.10139773383337
